METEOSAT-10 (MSG-3)     
1 38552U 12035B   25068.75675854 -.00000023  00000+0  00000+0 0  9996
2 38552   3.5750  62.0310 0001865 250.8245 127.2249  1.00273532 46205
SARSAT 13 (METOP-B)     
1 38771U 12049A   25068.89145240  .00000271  00000+0  14372-3 0  9995
2 38771  98.5902 125.6365 0000451 127.5367 232.5852 14.21447640647300
GPS BIIF-3              
1 38833U 12053A   25064.65695266 -.00000007  00000+0  00000+0 0  9994
2 38833  53.5282 162.7814 0163204  59.8680 301.7567  2.00561600 90045
GSAT0103 (GALILEO-FM3)  
1 38857U 12055A   25068.31272015  .00000005  00000+0  00000+0 0  9999
2 38857  55.5330 114.3146 0005502 275.4753  84.5354  1.70473493 77088
GPS BIIF-4              
1 39166U 13023A   25068.00953691  .00000002  00000+0  00000+0 0  9998
2 39166  54.8832 287.8787 0132750  46.7720 314.3758  2.00561781 86553
INSAT-3D                
1 39216U 13038B   25068.82752866 -.00000357  00000+0  00000+0 0  9995
2 39216   0.7237  88.9601 0001977 244.7125 261.4648  1.00276000 42422
GPS BIIF-5              
1 39533U 14008A   25067.01161266 -.00000038  00000+0  00000+0 0  9999
2 39533  53.6077 168.3239 0076378 222.8137 136.5920  2.00557296 80337
LUCH 5V                 
1 39727U 14023A   25068.84699876 -.00000285  00000+0  00000+0 0  9990
2 39727   3.9712  74.0508 0002833 277.7784 215.5613  1.00274187 39706
GPS BIIF-6              
1 39741U 14026A   25067.29701583 -.00000110  00000+0  00000+0 0  9993
2 39741  56.6718 349.6294 0036092 319.4987  40.2468  2.00549637 79193
GPS BIIF-7              
1 40105U 14045A   25067.87582884  .00000001  00000+0  00000+0 0  9993
2 40105  55.0608 107.0291 0028233 118.3551 241.9963  2.00554300 76745
GSAT0201 (GALILEO 5)    
1 40128U 14050A   25067.73181928 -.00000023  00000+0  00000+0 0  9998
2 40128  49.3795 292.3929 1621932 161.4093 205.2969  1.85519735 69684
GSAT0202 (GALILEO 6)    
1 40129U 14050B   25068.52808015 -.00000022  00000+0  00000+0 0  9999
2 40129  49.3947 291.4410 1621726 162.2215 204.2047  1.85520497 71861
GPS BIIF-8              
1 40294U 14068A   25067.24990998 -.00000037  00000+0  00000+0 0  9997
2 40294  56.6447  48.9625 0056204  63.5989 296.9797  2.00576559 75868
GLONASS-K 2             
1 40315U 14075A   25064.97983004  .00000050  00000+0  00000+0 0  9990
2 40315  63.6181 206.5854 0019745 205.1046 154.7740  2.13101255 79873
GPS BIIF-9              
1 40534U 15013A   25067.88968160  .00000015  00000+0  00000+0 0  9996
2 40534  53.2642 223.4295 0097639  34.5352 326.0578  2.00549265 72499
GSAT0203 (GALILEO 7)    
1 40544U 15017A   25067.46523640 -.00000111  00000+0  00000+0 0  9993
2 40544  56.9045 354.2817 0003568 302.6179  57.3498  1.70475275 61920
GSAT0204 (GALILEO 8)    
1 40545U 15017B   25061.26755611 -.00000087  00000+0  00000+0 0  9993
2 40545  56.9122 354.4670 0004226 281.5481  78.4114  1.70475279 24202
