[{"OBJECT_NAME":"METEOSAT-10 (MSG-3)","OBJECT_ID":"2012-035B","EPOCH":"2025-03-09T18:09:43.937856","MEAN_MOTION":1.00273532,"ECCENTRICITY":0.0001865,"INCLINATION":3.575,"RA_OF_ASC_NODE":62.031,"ARG_OF_PERICENTER":250.8245,"MEAN_ANOMALY":127.2249,"EPHEMERIS_TYPE":0,"CLASSIFICATION_TYPE":"U","NORAD_CAT_ID":38552,"ELEMENT_SET_NO":999,"REV_AT_EPOCH":4620,"BSTAR":0,"MEAN_MOTION_DOT":-2.3e-7,"MEAN_MOTION_DDOT":0},{"OBJECT_NAME":"SARSAT 13 (METOP-B)","OBJECT_ID":"2012-049A","EPOCH":"2025-03-09T21:23:41.487360","MEAN_MOTION":14.2144764,"ECCENTRICITY":4.51e-5,"INCLINATION":98.5902,"RA_OF_ASC_NODE":125.6365,"ARG_OF_PERICENTER":127.5367,"MEAN_ANOMALY":232.5852,"EPHEMERIS_TYPE":0,"CLASSIFICATION_TYPE":"U","NORAD_CAT_ID":38771,"ELEMENT_SET_NO":999,"REV_AT_EPOCH":64730,"BSTAR":0.00014372,"MEAN_MOTION_DOT":2.71e-6,"MEAN_MOTION_DDOT":0},{"OBJECT_NAME":"GPS BIIF-3","OBJECT_ID":"2012-053A","EPOCH":"2025-03-05T15:46:00.709824","MEAN_MOTION":2.005616,"ECCENTRICITY":0.0163204,"INCLINATION":53.5282,"RA_OF_ASC_NODE":162.7814,"ARG_OF_PERICENTER":59.868,"MEAN_ANOMALY":301.7567,"EPHEMERIS_TYPE":0,"CLASSIFICATION_TYPE":"U","NORAD_CAT_ID":38833,"ELEMENT_SET_NO":999,"REV_AT_EPOCH":9004,"BSTAR":0,"MEAN_MOTION_DOT":-7.0e-8,"MEAN_MOTION_DDOT":0},{"OBJECT_NAME":"GSAT0103 (GALILEO-FM3)","OBJECT_ID":"2012-055A","EPOCH":"2025-03-09T07:30:19.020960","MEAN_MOTION":1.70473493,"ECCENTRICITY":0.0005502,"INCLINATION":55.533,"RA_OF_ASC_NODE":114.3146,"ARG_OF_PERICENTER":275.4753,"MEAN_ANOMALY":84.5354,"EPHEMERIS_TYPE":0,"CLASSIFICATION_TYPE":"U","NORAD_CAT_ID":38857,"ELEMENT_SET_NO":999,"REV_AT_EPOCH":7708,"BSTAR":0,"MEAN_MOTION_DOT":5.0e-8,"MEAN_MOTION_DDOT":0},{"OBJECT_NAME":"GPS BIIF-4","OBJECT_ID":"2013-023A","EPOCH":"2025-03-09T00:13:43.989024","MEAN_MOTION":2.00561781,"ECCENTRICITY":0.013275,"INCLINATION":54.8832,"RA_OF_ASC_NODE":287.8787,"ARG_OF_PERICENTER":46.772,"MEAN_ANOMALY":314.3758,"EPHEMERIS_TYPE":0,"CLASSIFICATION_TYPE":"U","NORAD_CAT_ID":39166,"ELEMENT_SET_NO":999,"REV_AT_EPOCH":8655,"BSTAR":0,"MEAN_MOTION_DOT":2.0e-8,"MEAN_MOTION_DDOT":0},{"OBJECT_NAME":"INSAT-3D","OBJECT_ID":"2013-038B","EPOCH":"2025-03-09T19:51:38.476224","MEAN_MOTION":1.00276,"ECCENTRICITY":0.0001977,"INCLINATION":0.7237,"RA_OF_ASC_NODE":88.9601,"ARG_OF_PERICENTER":244.7125,"MEAN_ANOMALY":261.4648,"EPHEMERIS_TYPE":0,"CLASSIFICATION_TYPE":"U","NORAD_CAT_ID":39216,"ELEMENT_SET_NO":999,"REV_AT_EPOCH":4242,"BSTAR":0,"MEAN_MOTION_DOT":-3.57e-6,"MEAN_MOTION_DDOT":0},{"OBJECT_NAME":"GPS BIIF-5","OBJECT_ID":"2014-008A","EPOCH":"2025-03-08T00:16:43.333824","MEAN_MOTION":2.00557296,"ECCENTRICITY":0.0076378,"INCLINATION":53.6077,"RA_OF_ASC_NODE":168.3239,"ARG_OF_PERICENTER":222.8137,"MEAN_ANOMALY":136.592,"EPHEMERIS_TYPE":0,"CLASSIFICATION_TYPE":"U","NORAD_CAT_ID":39533,"ELEMENT_SET_NO":999,"REV_AT_EPOCH":8033,"BSTAR":0,"MEAN_MOTION_DOT":-3.8e-7,"MEAN_MOTION_DDOT":0},{"OBJECT_NAME":"LUCH 5V","OBJECT_ID":"2014-023A","EPOCH":"2025-03-09T20:19:40.692864","MEAN_MOTION":1.00274187,"ECCENTRICITY":0.0002833,"INCLINATION":3.9712,"RA_OF_ASC_NODE":74.0508,"ARG_OF_PERICENTER":277.7784,"MEAN_ANOMALY":215.5613,"EPHEMERIS_TYPE":0,"CLASSIFICATION_TYPE":"U","NORAD_CAT_ID":39727,"ELEMENT_SET_NO":999,"REV_AT_EPOCH":3970,"BSTAR":0,"MEAN_MOTION_DOT":-2.85e-6,"MEAN_MOTION_DDOT":0},{"OBJECT_NAME":"GPS BIIF-6","OBJECT_ID":"2014-026A","EPOCH":"2025-03-08T07:07:42.167712","MEAN_MOTION":2.00549637,"ECCENTRICITY":0.0036092,"INCLINATION":56.6718,"RA_OF_ASC_NODE":349.6294,"ARG_OF_PERICENTER":319.4987,"MEAN_ANOMALY":40.2468,"EPHEMERIS_TYPE":0,"CLASSIFICATION_TYPE":"U","NORAD_CAT_ID":39741,"ELEMENT_SET_NO":999,"REV_AT_EPOCH":7919,"BSTAR":0,"MEAN_MOTION_DOT":-1.1e-6,"MEAN_MOTION_DDOT":0},{"OBJECT_NAME":"GPS BIIF-7","OBJECT_ID":"2014-045A","EPOCH":"2025-03-08T21:01:11.611776","MEAN_MOTION":2.005543,"ECCENTRICITY":0.0028233,"INCLINATION":55.0608,"RA_OF_ASC_NODE":107.0291,"ARG_OF_PERICENTER":118.3551,"MEAN_ANOMALY":241.9963,"EPHEMERIS_TYPE":0,"CLASSIFICATION_TYPE":"U","NORAD_CAT_ID":40105,"ELEMENT_SET_NO":999,"REV_AT_EPOCH":7674,"BSTAR":0,"MEAN_MOTION_DOT":1.0e-8,"MEAN_MOTION_DDOT":0},{"OBJECT_NAME":"GSAT0201 (GALILEO 5)","OBJECT_ID":"2014-050A","EPOCH":"2025-03-08T17:33:49.185792","MEAN_MOTION":1.85519735,"ECCENTRICITY":0.1621932,"INCLINATION":49.3795,"RA_OF_ASC_NODE":292.3929,"ARG_OF_PERICENTER":161.4093,"MEAN_ANOMALY":205.2969,"EPHEMERIS_TYPE":0,"CLASSIFICATION_TYPE":"U","NORAD_CAT_ID":40128,"ELEMENT_SET_NO":999,"REV_AT_EPOCH":6968,"BSTAR":0,"MEAN_MOTION_DOT":-2.3e-7,"MEAN_MOTION_DDOT":0},{"OBJECT_NAME":"GSAT0202 (GALILEO 6)","OBJECT_ID":"2014-050B","EPOCH":"2025-03-09T12:40:26.124960","MEAN_MOTION":1.85520497,"ECCENTRICITY":0.1621726,"INCLINATION":49.3947,"RA_OF_ASC_NODE":291.441,"ARG_OF_PERICENTER":162.2215,"MEAN_ANOMALY":204.2047,"EPHEMERIS_TYPE":0,"CLASSIFICATION_TYPE":"U","NORAD_CAT_ID":40129,"ELEMENT_SET_NO":999,"REV_AT_EPOCH":7186,"BSTAR":0,"MEAN_MOTION_DOT":-2.2e-7,"MEAN_MOTION_DDOT":0},{"OBJECT_NAME":"GPS BIIF-8","OBJECT_ID":"2014-068A","EPOCH":"2025-03-08T05:59:52.222272","MEAN_MOTION":2.00576559,"ECCENTRICITY":0.0056204,"INCLINATION":56.6447,"RA_OF_ASC_NODE":48.9625,"ARG_OF_PERICENTER":63.5989,"MEAN_ANOMALY":296.9797,"EPHEMERIS_TYPE":0,"CLASSIFICATION_TYPE":"U","NORAD_CAT_ID":40294,"ELEMENT_SET_NO":999,"REV_AT_EPOCH":7586,"BSTAR":0,"MEAN_MOTION_DOT":-3.7e-7,"MEAN_MOTION_DDOT":0},{"OBJECT_NAME":"GLONASS-K 2","OBJECT_ID":"2014-075A","EPOCH":"2025-03-05T23:30:57.315456","MEAN_MOTION":2.13101255,"ECCENTRICITY":0.0019745,"INCLINATION":63.6181,"RA_OF_ASC_NODE":206.5854,"ARG_OF_PERICENTER":205.1046,"MEAN_ANOMALY":154.774,"EPHEMERIS_TYPE":0,"CLASSIFICATION_TYPE":"U","NORAD_CAT_ID":40315,"ELEMENT_SET_NO":999,"REV_AT_EPOCH":7987,"BSTAR":0,"MEAN_MOTION_DOT":5.0e-7,"MEAN_MOTION_DDOT":0},{"OBJECT_NAME":"GPS BIIF-9","OBJECT_ID":"2015-013A","EPOCH":"2025-03-08T21:21:08.490240","MEAN_MOTION":2.00549265,"ECCENTRICITY":0.0097639,"INCLINATION":53.2642,"RA_OF_ASC_NODE":223.4295,"ARG_OF_PERICENTER":34.5352,"MEAN_ANOMALY":326.0578,"EPHEMERIS_TYPE":0,"CLASSIFICATION_TYPE":"U","NORAD_CAT_ID":40534,"ELEMENT_SET_NO":999,"REV_AT_EPOCH":7249,"BSTAR":0,"MEAN_MOTION_DOT":1.5e-7,"MEAN_MOTION_DDOT":0},{"OBJECT_NAME":"GSAT0203 (GALILEO 7)","OBJECT_ID":"2015-017A","EPOCH":"2025-03-08T11:09:56.424960","MEAN_MOTION":1.70475275,"ECCENTRICITY":0.0003568,"INCLINATION":56.9045,"RA_OF_ASC_NODE":354.2817,"ARG_OF_PERICENTER":302.6179,"MEAN_ANOMALY":57.3498,"EPHEMERIS_TYPE":0,"CLASSIFICATION_TYPE":"U","NORAD_CAT_ID":40544,"ELEMENT_SET_NO":999,"REV_AT_EPOCH":6192,"BSTAR":0,"MEAN_MOTION_DOT":-1.11e-6,"MEAN_MOTION_DDOT":0},{"OBJECT_NAME":"GSAT0204 (GALILEO 8)","OBJECT_ID":"2015-017B","EPOCH":"2025-03-02T06:25:16.847904","MEAN_MOTION":1.70475279,"ECCENTRICITY":0.0004226,"INCLINATION":56.9122,"RA_OF_ASC_NODE":354.467,"ARG_OF_PERICENTER":281.5481,"MEAN_ANOMALY":78.4114,"EPHEMERIS_TYPE":0,"CLASSIFICATION_TYPE":"U","NORAD_CAT_ID":40545,"ELEMENT_SET_NO":999,"REV_AT_EPOCH":2420,"BSTAR":0,"MEAN_MOTION_DOT":-8.7e-7,"MEAN_MOTION_DDOT":0}]
